NORAD_CAT_ID,OBJECT_NAME,OBJECT_TYPE,EPOCH,MEAN_MOTION,ECCENTRICITY,INCLINATION,RA_OF_ASC_NODE,ARG_OF_PERICENTER,MEAN_ANOMALY,BSTAR,MEAN_MOTION_DOT,MEAN_MOTION_DDOT,TLE_LINE0,TLE_LINE1,TLE_LINE2,SEMIMAJOR_AXIS,PERIOD,APOGEE,PERIGEE,DECAYED
52345.0,STARLINK-3852,PAYLOAD,2024-02-23 22:30:48,15.08845034,0.0001551,53.2177,302.6042,96.0559,264.0609,8.9814e-05,1.142e-05,0.0,0 STARLINK-3852,1 52345U 22045Q   24054.93806013  .00001142  00000-0  89814-4 0  9999,2 52345  53.2177 302.6042 0001551  96.0559 264.0609 15.08845034103334,6917.865,95.437,540.803,538.657,0.0
52345.0,STARLINK-3852,PAYLOAD,2024-02-24 09:38:30,15.08845235,0.0001547,53.2178,300.5248,85.4949,274.622,6.7759e-05,7.91e-06,0.0,0 STARLINK-3852,1 52345U 22045Q   24055.40173987  .00000791  00000-0  67759-4 0  9992,2 52345  53.2178 300.5248 0001547  85.4949 274.6220 15.08845235103407,6917.864,95.437,540.8,538.659,0.0
52345.0,STARLINK-3852,PAYLOAD,2024-02-24 16:00:02,15.08842654,0.0001359,53.2162,299.3362,87.0129,273.1018,5.9263e-05,6.55e-06,0.0,0 STARLINK-3852,1 52345U 22045Q   24055.66670028  .00000655  00000-0  59263-4 0  9998,2 52345  53.2162 299.3362 0001359  87.0129 273.1018 15.08842654103446,6917.872,95.437,540.677,538.797,0.0
52345.0,STARLINK-3852,PAYLOAD,2024-02-25 03:07:44,15.08848538,0.0001199,53.2169,297.2541,98.5612,261.5516,4.3364e-05,4.02e-06,0.0,0 STARLINK-3852,1 52345U 22045Q   24056.13037555  .00000402  00000-0  43364-4 0  9998,2 52345  53.2169 297.2541 0001199  98.5612 261.5516 15.08848538103514,6917.854,95.437,540.549,538.89,0.0
52345.0,STARLINK-3852,PAYLOAD,2024-02-25 09:29:17,15.08842293,0.0001089,53.2175,296.0648,81.4154,278.6962,-2.7762e-07,-2.92e-06,0.0,0 STARLINK-3852,1 52345U 22045Q   24056.39533831 -.00000292  00000-0 -27762-6 0  9999,2 52345  53.2175 296.0648 0001089  81.4154 278.6962 15.08842293103556,6917.873,95.437,540.492,538.985,0.0
52345.0,STARLINK-3852,PAYLOAD,2024-02-25 20:36:59,15.08841533,0.000138,53.2175,293.9835,85.8753,274.2397,9.1831e-05,1.174e-05,0.0,0 STARLINK-3852,1 52345U 22045Q   24056.85902079  .00001174  00000-0  91831-4 0  9998,2 52345  53.2175 293.9835 0001380  85.8753 274.2397 15.08841533103625,6917.876,95.437,540.695,538.786,0.0
52345.0,STARLINK-3852,PAYLOAD,2024-02-25 22:12:22,15.08843277,0.0001251,53.2179,293.6851,92.2297,267.8838,0.00011682,1.572e-05,0.0,0 STARLINK-3852,1 52345U 22045Q   24056.92525970  .00001572  00000-0  11682-3 0  9994,2 52345  53.2179 293.6851 0001251  92.2297 267.8838 15.08843277103632,6917.87,95.437,540.601,538.87,0.0
52345.0,STARLINK-3852,PAYLOAD,2024-02-26 01:23:08,15.08849794,0.0001379,53.217,293.0883,93.0342,267.0808,0.00015563,2.19e-05,0.0,0 STARLINK-3852,1 52345U 22045Q   24057.05773661  .00002190  00000-0  15563-3 0  9990,2 52345  53.2170 293.0883 0001379  93.0342 267.0808 15.08849794103654,6917.85,95.437,540.669,538.761,0.0
52345.0,STARLINK-3852,PAYLOAD,2024-02-26 18:52:23,15.08835299,0.000124,53.2162,289.8203,90.3646,269.7488,4.906e-05,4.93e-06,0.0,0 STARLINK-3852,1 52345U 22045Q   24057.78638597  .00000493  00000-0  49060-4 0  9992,2 52345  53.2162 289.8203 0001240  90.3646 269.7488 15.08835299103768,6917.895,95.438,540.618,538.902,0.0
52345.0,STARLINK-3852,PAYLOAD,2024-02-26 22:03:09,15.08838388,0.0001291,53.216,289.2247,97.1962,262.9176,4.4736e-05,4.24e-06,0.0,0 STARLINK-3852,1 52345U 22045Q   24057.91886477  .00000424  00000-0  44736-4 0  9998,2 52345  53.2160 289.2247 0001291  97.1962 262.9176 15.08838388103783,6917.885,95.438,540.643,538.857,0.0
52345.0,STARLINK-3852,PAYLOAD,2024-02-27 01:13:56,15.08839642,0.000125,53.216,288.6295,92.3541,267.7595,6.9623e-05,8.2e-06,0.0,0 STARLINK-3852,1 52345U 22045Q   24058.05134471  .00000820  00000-0  69623-4 0  9996,2 52345  53.2160 288.6295 0001250  92.3541 267.7595 15.08839642103809,6917.881,95.438,540.611,538.882,0.0
52345.0,STARLINK-3852,PAYLOAD,2024-02-27 20:18:33,15.08840865,0.0001412,53.2157,285.0604,92.6147,267.5006,0.00017289,2.465e-05,0.0,0 STARLINK-3852,1 52345U 22045Q   24058.84622631  .00002465  00000-0  17289-3 0  9990,2 52345  53.2157 285.0604 0001412  92.6147 267.5006 15.08840865103922,6917.878,95.437,540.72,538.766,0.0
52345.0,STARLINK-3852,PAYLOAD,2024-02-27 21:53:57,15.08842983,0.0001376,53.2157,284.7635,87.5233,272.5917,0.00021655,3.16e-05,0.0,0 STARLINK-3852,1 52345U 22045Q   24058.91246585  .00003160  00000-0  21655-3 0  9993,2 52345  53.2157 284.7635 0001376  87.5233 272.5917 15.08842983103931,6917.871,95.437,540.688,538.784,0.0
52345.0,STARLINK-3852,PAYLOAD,2024-02-28 07:26:15,15.08856177,0.0001373,53.2163,282.9806,91.3114,268.8035,0.00042333,6.459e-05,0.0,0 STARLINK-3852,1 52345U 22045Q   24059.30989961  .00006459  00000-0  42333-3 0  9999,2 52345  53.2163 282.9806 0001373  91.3114 268.8035 15.08856177103991,6917.831,95.437,540.646,538.746,0.0
52345.0,STARLINK-3852,PAYLOAD,2024-02-28 20:09:20,15.08832535,0.0001542,53.2157,280.6014,38.3192,321.7909,-7.493e-05,-1.48e-05,0.0,0 STARLINK-3852,1 52345U 22045Q   24059.83982629 -.00001480  00000-0 -74930-4 0  9991,2 52345  53.2157 280.6014 0001542  38.3192 321.7909 15.08832535104076,6917.903,95.438,540.835,538.701,0.0
52345.0,STARLINK-3852,PAYLOAD,2024-02-28 21:44:43,15.08836009,0.0001358,53.2162,280.3055,94.6185,265.4962,-0.00016658,-2.938e-05,0.0,0 STARLINK-3852,1 52345U 22045Q   24059.90606189 -.00002938  00000-0 -16658-3 0  9994,2 52345  53.2162 280.3055 0001358  94.6185 265.4962 15.08836009104080,6917.893,95.438,540.697,538.818,0.0
52345.0,STARLINK-3852,PAYLOAD,2024-02-29 00:55:29,15.08839841,0.0001321,53.2158,279.7092,89.2079,270.9065,-0.00021407,-3.693e-05,0.0,0 STARLINK-3852,1 52345U 22045Q   24060.03853927 -.00003693  00000-0 -21407-3 0  9991,2 52345  53.2158 279.7092 0001321  89.2079 270.9065 15.08839841104105,6917.881,95.438,540.66,538.832,0.0
52345.0,STARLINK-3852,PAYLOAD,2024-02-29 07:17:02,15.0883964,0.0001254,53.2156,278.5191,86.7713,273.3422,-0.00014619,-2.614e-05,0.0,0 STARLINK-3852,1 52345U 22045Q   24060.30349977 -.00002614  00000-0 -14619-3 0  9995,2 52345  53.2156 278.5191 0001254  86.7713 273.3422 15.08839640104147,6917.881,95.438,540.614,538.879,0.0
52345.0,STARLINK-3852,PAYLOAD,2024-02-29 21:35:30,15.088405,0.0001274,53.2153,275.8433,89.5381,270.5757,8.7443e-06,-1.49e-06,0.0,0 STARLINK-3852,1 52345U 22045Q   24060.89966242 -.00000149  00000-0  87443-5 0  9996,2 52345  53.2153 275.8433 0001274  89.5381 270.5757 15.08840500104234,6917.879,95.438,540.625,538.863,0.0
52345.0,STARLINK-3852,PAYLOAD,2024-03-01 19:50:55,15.08840897,0.0001259,53.215,271.6802,90.5531,269.5605,0.00035865,5.425e-05,0.0,0 STARLINK-3852,1 52345U 22045Q   24061.82702695  .00005425  00000-0  35865-3 0  9990,2 52345  53.2150 271.6802 0001259  90.5531 269.5605 15.08840897104371,6917.878,95.437,540.614,538.872,0.0
52345.0,STARLINK-3852,PAYLOAD,2024-03-01 21:26:18,15.08842112,0.0001252,53.2151,271.3829,90.4236,269.6899,0.00036904,5.591e-05,0.0,0 STARLINK-3852,1 52345U 22045Q   24061.89326661  .00005591  00000-0  36904-3 0  9991,2 52345  53.2151 271.3829 0001252  90.4236 269.6899 15.08842112104381,6917.874,95.437,540.605,538.873,0.0
52345.0,STARLINK-3852,PAYLOAD,2024-03-02 19:41:42,15.0884271,0.0001338,53.2154,267.2205,83.6271,276.4873,0.00023006,3.376e-05,0.0,0 STARLINK-3852,1 52345U 22045Q   24062.82062832  .00003376  00000-0  23006-3 0  9990,2 52345  53.2154 267.2205 0001338  83.6271 276.4873 15.08842710104522,6917.872,95.437,540.663,538.811,0.0
52345.0,STARLINK-3852,PAYLOAD,2024-03-02 21:17:05,15.08843662,0.0001342,53.2154,266.923,81.599,278.5154,0.00022364,3.273e-05,0.0,0 STARLINK-3852,1 52345U 22045Q   24062.88686800  .00003273  00000-0  22364-3 0  9995,2 52345  53.2154 266.9230 0001342  81.5990 278.5154 15.08843662104539,6917.869,95.437,540.663,538.806,0.0
52345.0,STARLINK-3852,PAYLOAD,2024-03-03 13:10:56,15.08842453,0.0001426,53.215,263.9507,78.525,281.5902,0.0001518,2.129e-05,0.0,0 STARLINK-3852,1 52345U 22045Q   24063.54926903  .00002129  00000-0  15180-3 0  9997,2 52345  53.2150 263.9507 0001426  78.5250 281.5902 15.08842453104630,6917.873,95.437,540.724,538.751,0.0
52345.0,STARLINK-3852,PAYLOAD,2024-03-03 19:32:29,15.0884434,0.0001435,53.2153,262.761,79.5153,280.6001,0.00014904,2.085e-05,0.0,0 STARLINK-3852,1 52345U 22045Q   24063.81422851  .00002085  00000-0  14904-3 0  9994,2 52345  53.2153 262.7610 0001435  79.5153 280.6001 15.08844340104679,6917.867,95.437,540.725,538.739,0.0
52345.0,STARLINK-3852,PAYLOAD,2024-03-03 22:43:15,15.08847055,0.0001442,53.2156,262.1645,91.1976,268.9181,0.00067949,0.00010545,0.0,0 STARLINK-3852,1 52345U 22045Q   24063.94670936  .00010545  00000-0  67949-3 0  9994,2 52345  53.2156 262.1645 0001442  91.1976 268.9181 15.08847055104691,6917.859,95.437,540.721,538.726,0.0
52345.0,STARLINK-3852,PAYLOAD,2024-03-04 13:01:43,15.08845396,0.0001376,53.2158,259.4866,95.5233,264.5916,7.0805e-05,8.39e-06,0.0,0 STARLINK-3852,1 52345U 22045Q   24064.54286531  .00000839  00000-0  70805-4 0  9996,2 52345  53.2158 259.4866 0001376  95.5233 264.5916 15.08845396104781,6917.864,95.437,540.681,538.777,0.0
52345.0,STARLINK-3852,PAYLOAD,2024-03-04 17:47:52,15.08847114,0.0001426,53.2145,258.5963,88.4613,271.6543,0.000147,2.053e-05,0.0,0 STARLINK-3852,1 52345U 22045Q   24064.74158410  .00002053  00000-0  14700-3 0  9993,2 52345  53.2145 258.5963 0001426  88.4613 271.6543 15.08847114104813,6917.859,95.437,540.71,538.737,0.0
52345.0,STARLINK-3852,PAYLOAD,2024-03-05 19:14:03,15.08835542,0.0001478,53.2156,253.837,94.615,265.5011,-7.1622e-05,-1.428e-05,0.0,0 STARLINK-3852,1 52345U 22045Q   24065.80143006 -.00001428  00000-0 -71622-4 0  9990,2 52345  53.2156 253.8370 0001478  94.6150 265.5011 15.08835542104978,6917.894,95.438,540.781,538.737,0.0
52345.0,STARLINK-3852,PAYLOAD,2024-03-06 12:43:18,15.08832808,0.0001451,53.214,250.5631,100.4123,259.7032,-6.2239e-05,-1.278e-05,0.0,0 STARLINK-3852,1 52345U 22045Q   24066.53007377 -.00001278  00000-0 -62239-4 0  9998,2 52345  53.2140 250.5631 0001451 100.4123 259.7032 15.08832808105085,6917.902,95.438,540.771,538.764,0.0
